{
"type": "FeatureCollection",
"name": "buffer",
"crs": { "type": "name", "properties": { "name": "urn:ogc:def:crs:OGC:1.3:CRS84" } },
"features": [
{ "type": "Feature", "properties": { "ID": 1, "Nama": "Taman Nasional Way Kambas", "Deskripsi": "Taman Nasional Way Kambas adalah surga konservasi di ujung timur Lampung, terkenal sebagai habitat alami gajah Sumatera dan rumah bagi satwa langka lainnya. Di sini, pengunjung bisa menyaksikan langsung pelatihan gajah, menjelajahi alam liar, dan merasak", "Fasilitas": "Pusat informasi, Masjid, area parkir, toilet, area piknik, dan pusat pelatihan gajah.", "Jam_Buka": "Setiap hari, pukul 08.00 - 17.00 WIB", "Alamat": "Kecamatan Labuhan Ratu, Kabupaten Lampung Timur.", "Tiket_Masu": "Rp 20.000 Hari biasa, Rp. 30.000 Hari libur", "Foto": "gambar\/waykambas.jpg", "Longitude": 105.703087, "Latitude": -5.078999 }, "geometry": { "type": "MultiPolygon", "coordinates": [ [ [ [ 105.712108243032091, -5.078989109356967 ], [ 105.711669778808144, -5.081784932837619 ], [ 105.710391163946113, -5.084308055236154 ], [ 105.708397550409444, -5.086311492276983 ], [ 105.705884085411341, -5.087599128148933 ], [ 105.70309680965353, -5.088044914769092 ], [ 105.700308571146635, -5.087605212284509 ], [ 105.69779231310136, -5.086323062052998 ], [ 105.695794352134314, -5.084323973369313 ], [ 105.694510264120325, -5.081803636397231 ], [ 105.694065739284738, -5.079008764570971 ], [ 105.694504280787044, -5.076212942545615 ], [ 105.695782950164073, -5.073689844637453 ], [ 105.697776574629543, -5.071686445767583 ], [ 105.700290002795782, -5.070398847167167 ], [ 105.703077208029612, -5.069953082682658 ], [ 105.705865369258163, -5.070392783711944 ], [ 105.70838157278844, -5.07167490945308 ], [ 105.710379522826699, -5.073673959965808 ], [ 105.711663647672538, -5.076194259666354 ], [ 105.712108243032091, -5.078989109356967 ] ] ] ] } },
{ "type": "Feature", "properties": { "ID": 2, "Nama": "Wisata Padang Savana", "Deskripsi": "Padang Savana Lampung Timur merupakan destinasi wisata alam yang menyuguhkan hamparan padang rumput luas menyerupai savana di Afrika. Berhadapan langsung dengan Taman Nasional Way Kambas, kawasan ini menghadirkan perpaduan unik antara keindahan alam terb", "Fasilitas": "Gazebo.", "Jam_Buka": "Setiap hari", "Alamat": "Desa Braja Harjosari, Kec. Braja Slebah, Kabupaten Lampung Timur.", "Tiket_Masu": "Gratis", "Foto": "gambar\/savana.jpg", "Longitude": 105.7914841, "Latitude": -5.182805965 }, "geometry": { "type": "MultiPolygon", "coordinates": [ [ [ [ 105.800506617108653, -5.182794612077091 ], [ 105.800068542261315, -5.185590440849711 ], [ 105.798790153985863, -5.188113711425652 ], [ 105.796796581773222, -5.190117425049355 ], [ 105.794282968595297, -5.191405438725035 ], [ 105.791495369633722, -5.191851667183865 ], [ 105.788706664692498, -5.191412427103553 ], [ 105.786189842917395, -5.190130714427924 ], [ 105.78419127639944, -5.188131995596064 ], [ 105.782906600485234, -5.185611924678845 ], [ 105.782461562972813, -5.182817189271036 ], [ 105.782899717050071, -5.180021360893218 ], [ 105.784178161900513, -5.177498114634126 ], [ 105.786171746423491, -5.175494439961114 ], [ 105.788685322944986, -5.174206464992126 ], [ 105.791472850284833, -5.173760260211345 ], [ 105.794261475996151, -5.174199499896856 ], [ 105.796778241196265, -5.175481188255633 ], [ 105.798776795403882, -5.177479868136801 ], [ 105.800061507974533, -5.17999990034733 ], [ 105.800506617108653, -5.182794612077091 ] ] ] ] } },
{ "type": "Feature", "properties": { "ID": 3, "Nama": "Goa Pandan", "Deskripsi": "Goa Pandan merupakan destinasi wisata alam di Lampung Timur yang menyuguhkan keindahan goa alami dengan stalaktit dan stalagmit yang memukau. Terletak di tengah kawasan yang masih asri, goa ini menawarkan suasana sejuk dan tenang, cocok bagi pecinta alam", "Fasilitas": "Area parkir, gazebo, toilet dan sewa Pemnadu susur goa.", "Jam_Buka": "Setiap hari", "Alamat": "Desa Giri Mulyo, Kec. Marga Sekapung, Kabupaten Lampung Timur.", "Tiket_Masu": "Gratis", "Foto": "gambar\/goa.jpg", "Longitude": 105.6696729, "Latitude": -5.390880989 }, "geometry": { "type": "MultiPolygon", "coordinates": [ [ [ [ 105.678698677361169, -5.390870988446459 ], [ 105.67826002767552, -5.393666809619325 ], [ 105.676980800907515, -5.396189940870009 ], [ 105.674986208571283, -5.398193396742549 ], [ 105.672471493762572, -5.399481059247249 ], [ 105.669682819984857, -5.39992687746579 ], [ 105.666893172772731, -5.399487208417732 ], [ 105.664375633863017, -5.398205090360615 ], [ 105.662376645599153, -5.396206029753623 ], [ 105.661091884344074, -5.393685714347341 ], [ 105.66064710576299, -5.390890855693354 ], [ 105.661085837177723, -5.388095037191754 ], [ 105.662365120903061, -5.38557193264116 ], [ 105.664359723669136, -5.383568517299008 ], [ 105.666874398396359, -5.382280893673765 ], [ 105.669662996890978, -5.381835097833116 ], [ 105.672452562374033, -5.38227476420991 ], [ 105.6749700443264, -5.383556855566933 ], [ 105.676969022160421, -5.38555587564354 ], [ 105.678253823497016, -5.388076152170367 ], [ 105.678698677361169, -5.390870988446459 ] ] ] ] } },
{ "type": "Feature", "properties": { "ID": 4, "Nama": "Kali Medek", "Deskripsi": "Kali Medek adalah aliran sungai jernih dengan suasana alami yang masih asri, dikelilingi pepohonan dan batuan sungai yang eksotis. Tempat ini menjadi pilihan tepat untuk bermain air, berendam, atau sekadar bersantai menikmati kesejukan alam pedesaan.", "Fasilitas": "Area parkir, gazebo, toilet, mushola, sewa perahu dan sewa ban.", "Jam_Buka": "Setiap hari, pukul 08.00 - 17.00 WIB", "Alamat": "Desa Sri Menanti, Kec. Bandar Sribawono, Kabupaten Lampung Timur.", "Tiket_Masu": "Rp. 10.000 per orang", "Foto": "gambar\/kalimedek.jpg", "Longitude": 105.731946, "Latitude": -5.298318 }, "geometry": { "type": "MultiPolygon", "coordinates": [ [ [ [ 105.740970300837546, -5.298307262776448 ], [ 105.740531949834192, -5.301103090496997 ], [ 105.739253137417663, -5.303626299821735 ], [ 105.737259034552153, -5.305629897813372 ], [ 105.73474483628388, -5.306917752670499 ], [ 105.731956655322705, -5.30736379464653 ], [ 105.729167428725802, -5.306924358759039 ], [ 105.726650196904714, -5.305642460281401 ], [ 105.724651372133195, -5.303643584017727 ], [ 105.723366614907192, -5.301123399573904 ], [ 105.722921680728575, -5.298328605681487 ], [ 105.723360112387198, -5.2955327795003 ], [ 105.724638981692564, -5.293009595741479 ], [ 105.726633095950845, -5.291006037577 ], [ 105.729147255764161, -5.289718221595655 ], [ 105.731935363111191, -5.289272202694804 ], [ 105.734724509052811, -5.289711637042932 ], [ 105.737241683985076, -5.290993509954651 ], [ 105.739240497363809, -5.292992346391169 ], [ 105.740525293044755, -5.295512491959209 ], [ 105.740970300837546, -5.298307262776448 ] ] ] ] } },
{ "type": "Feature", "properties": { "ID": 5, "Nama": "Kali Aro", "Deskripsi": "Kali Aro adalah aliran sungai alami yang jernih dan menyegarkan, dikelilingi oleh pemandangan hijau yang asri. Tempat ini sering dijadikan lokasi wisata keluarga dan bermain air karena arusnya yang tenang dan suasananya yang damai. Cocok untuk relaksasi", "Fasilitas": "Area parkir, gazebo, toilet, mushola, terapi ikan, perosotan, sewa perahu dan sewa ban.", "Jam_Buka": "Setiap hari, pukul 08.00 - 17.00 WIB", "Alamat": "Desa Sri Menanti, Kec. Bandar Sribawono, Kabupaten Lampung Timur.", "Tiket_Masu": "Rp. 10.000 per orang", "Foto": "gambar\/kaliaro.jpg", "Longitude": 105.7368401, "Latitude": -5.29666692 }, "geometry": { "type": "MultiPolygon", "coordinates": [ [ [ [ 105.745864366876987, -5.296656114784943 ], [ 105.74542603849028, -5.299451942864126 ], [ 105.74414724981844, -5.301975159176761 ], [ 105.742153169494841, -5.303978770109315 ], [ 105.739638990348325, -5.305266642595445 ], [ 105.736850823206069, -5.305712705158061 ], [ 105.734061603765696, -5.305273290789919 ], [ 105.731544371738096, -5.303991412647147 ], [ 105.729545539423754, -5.30199255353556 ], [ 105.72826076806777, -5.299472381380266 ], [ 105.727815814566085, -5.296677593714785 ], [ 105.728254223606854, -5.293881767099068 ], [ 105.729533069213758, -5.291358576297564 ], [ 105.73152716100617, -5.28935500517942 ], [ 105.734041301774539, -5.288067171603233 ], [ 105.736829395350853, -5.287621132183811 ], [ 105.739618534137136, -5.28806054508849 ], [ 105.7421357092297, -5.289342397720127 ], [ 105.744134530075229, -5.291341217017303 ], [ 105.745419339809359, -5.293861350262657 ], [ 105.745864366876987, -5.296656114784943 ] ] ] ] } },
{ "type": "Feature", "properties": { "ID": 6, "Nama": "Danau Way Jepara", "Deskripsi": "Danau Way Jepara adalah danau alami yang menyuguhkan panorama tenang dan udara segar di tengah alam Lampung Timur. Cocok untuk bersantai, memancing, atau berfoto dengan latar pemandangan yang asri, danau ini menjadi pilihan favorit untuk melepas penat da", "Fasilitas": "Area parkir, dan spot foto.", "Jam_Buka": "Setiap hari", "Alamat": "Desa Braja Harjosari, Kec. Way Jepara, Lampung Timur.", "Tiket_Masu": "Gratis", "Foto": "gambar\/wayjepara.jpg", "Longitude": 105.669847, "Latitude": -5.202512 }, "geometry": { "type": "MultiPolygon", "coordinates": [ [ [ [ 105.678870044692175, -5.202502345377514 ], [ 105.678431420511941, -5.205298166379047 ], [ 105.67715248463864, -5.207821263465526 ], [ 105.675158420356851, -5.209824654688874 ], [ 105.67264441907416, -5.211112228590034 ], [ 105.669856574206037, -5.211557943087518 ], [ 105.667067789752991, -5.211118165416377 ], [ 105.664551062603437, -5.209835944404436 ], [ 105.662552755394813, -5.207836796425143 ], [ 105.661268477822219, -5.205316417579366 ], [ 105.660823938447749, -5.202521525464903 ], [ 105.661262641572677, -5.19972570669465 ], [ 105.662541632676479, -5.197202635156036 ], [ 105.664535707378377, -5.195199283038717 ], [ 105.66704967029068, -5.193911746864583 ], [ 105.669837442654071, -5.193466054304674 ], [ 105.672626148162422, -5.193905829744535 ], [ 105.675142820081476, -5.195188025208612 ], [ 105.67714111686999, -5.197187134081875 ], [ 105.678425432813, -5.199707475200627 ], [ 105.678870044692175, -5.202502345377514 ] ] ] ] } },
{ "type": "Feature", "properties": { "ID": 7, "Nama": "Danau Kemuning", "Deskripsi": "Danau Kemuning menawarkan keindahan alam yang tenang dengan air yang jernih dan pepohonan rindang di sekitarnya. Tempat ini cocok untuk rekreasi keluarga, berperahu, atau sekadar menikmati suasana alam yang damai dan menyegarkan.", "Fasilitas": "Area parkir, gazebo, toilet, mushola, dan sewa perahu bebek.", "Jam_Buka": "Setiap hari, pukul 08.00 - 17.00 WIB", "Alamat": "Desa Braja Harjosari, Kecamatan Way Jepara, Lampung Timur.", "Tiket_Masu": "Rp. 5000 per orang", "Foto": "gambar\/danaukemuning.jpg", "Longitude": 105.7342812, "Latitude": -5.304265398 }, "geometry": { "type": "MultiPolygon", "coordinates": [ [ [ [ 105.74330558241374, -5.304254614677386 ], [ 105.742867241686795, -5.30705044263672 ], [ 105.741588430549868, -5.309573656698894 ], [ 105.739594319830005, -5.311577263460761 ], [ 105.737080105337043, -5.312865130256045 ], [ 105.734291901372458, -5.313311186161396 ], [ 105.73150264725605, -5.312871764824027 ], [ 105.728985386107183, -5.311589880090124 ], [ 105.726986533082382, -5.309591015420591 ], [ 105.725701751448398, -5.307070839292776 ], [ 105.72525679909289, -5.304276049632379 ], [ 105.725695220574124, -5.30148022319182 ], [ 105.726974088683804, -5.298957034710552 ], [ 105.728968210833202, -5.296953467820689 ], [ 105.731482386846807, -5.295665639958751 ], [ 105.734270517120933, -5.295219607176877 ], [ 105.737059690483051, -5.295659026995469 ], [ 105.739576894659152, -5.296940886148461 ], [ 105.741575736254433, -5.298939710945992 ], [ 105.742860556367773, -5.301459848140461 ], [ 105.74330558241374, -5.304254614677386 ] ] ] ] } },
{ "type": "Feature", "properties": { "ID": 8, "Nama": "Danau Beringin Indah", "Deskripsi": "Danau Beringin Indah memikat dengan pesona airnya yang tenang dan dikelilingi oleh pepohonan hijau yang rimbun. Suasana sejuk dan alami menjadikannya tempat favorit untuk bersantai, berfoto, atau menikmati waktu bersama keluarga di tengah keindahan alam.", "Fasilitas": "Gazebo.", "Jam_Buka": "Setiap hari", "Alamat": "Desa Negara Nabung, Kec. Sukadana, Kabupaten Lampung Timur.", "Tiket_Masu": "Gratis", "Foto": "gambar\/beringinindah.jpg", "Longitude": 105.513814, "Latitude": -5.065618 }, "geometry": { "type": "MultiPolygon", "coordinates": [ [ [ [ 105.522835378234959, -5.06561077392161 ], [ 105.522396085813824, -5.068406568247759 ], [ 105.521116710069165, -5.070929403114964 ], [ 105.519122477799385, -5.072932322159534 ], [ 105.516608597201625, -5.074219260288581 ], [ 105.513821149981069, -5.074664237974155 ], [ 105.511033001034974, -5.074223694946907 ], [ 105.508517084651515, -5.072940755234114 ], [ 105.506519683648449, -5.070941005644118 ], [ 105.505236318669532, -5.068420201021587 ], [ 105.504792608842678, -5.065625100322569 ], [ 105.505231977446044, -5.062829310206365 ], [ 105.506511405209807, -5.060306501474512 ], [ 105.50850564546603, -5.05830362050788 ], [ 105.511019486967058, -5.057016717854886 ], [ 105.513806862941266, -5.056571759492825 ], [ 105.516594935705129, -5.057012298310126 ], [ 105.519110800069484, -5.058295211887565 ], [ 105.521108193086093, -5.060294923399622 ], [ 105.522391597161771, -5.062815692546104 ], [ 105.522835378234959, -5.06561077392161 ] ] ] ] } },
{ "type": "Feature", "properties": { "ID": 9, "Nama": "Bendungan Way Curup", "Deskripsi": "Bendungan Way Curup menawarkan keindahan sungai alami dengan air yang jernih, bebatuan besar, dan suasana pedesaan yang tenang. Meskipun belum dikelola sepenuhnya, tempat ini memiliki potensi besar sebagai destinasi wisata alam yang menyegarkan. Cocok un", "Fasilitas": "Spot foto.", "Jam_Buka": "Setiap hari", "Alamat": "Desa Rajabasa Baru, Kec. Mataram Baru, Kabupaten Lampung Timur.", "Tiket_Masu": "Gratis", "Foto": "gambar\/curup.jpg", "Longitude": 105.74159, "Latitude": -5.280661 }, "geometry": { "type": "MultiPolygon", "coordinates": [ [ [ [ 105.750614025291569, -5.28065015832325 ], [ 105.750175719834047, -5.283445986572784 ], [ 105.748896975542124, -5.285969206605536 ], [ 105.746902956717378, -5.28797282446387 ], [ 105.744388850158401, -5.289260706420718 ], [ 105.741600759557812, -5.289706780079768 ], [ 105.738811613084039, -5.289267377343005 ], [ 105.736294443275057, -5.287985510212797 ], [ 105.734295656328555, -5.285986660396916 ], [ 105.733010909059018, -5.283466494893319 ], [ 105.732565956033795, -5.28067171057659 ], [ 105.733004341931235, -5.277875883683439 ], [ 105.734283143070826, -5.275352689020689 ], [ 105.736277173437117, -5.273349110855498 ], [ 105.738791241823066, -5.272061267753495 ], [ 105.741579259116818, -5.271615217269772 ], [ 105.744368325150688, -5.272054618650148 ], [ 105.746885438112002, -5.273336460410355 ], [ 105.748884213516959, -5.275335270533096 ], [ 105.750168998959523, -5.277855397181844 ], [ 105.750614025291569, -5.28065015832325 ] ] ] ] } },
{ "type": "Feature", "properties": { "ID": 10, "Nama": "Bendungan Garongan", "Deskripsi": "Bendungan Garongan di Lampung Timur merupakan destinasi wisata yang menawarkan panorama alam yang tenang dengan hamparan air yang luas dan dikelilingi pepohonan hijau. Selain berfungsi sebagai sarana irigasi, bendungan ini menjadi tempat favorit untuk be", "Fasilitas": "-", "Jam_Buka": "Setiap hari", "Alamat": "Desa Gondang Rejo, Kec. Pekalongan, Kabupaten Lampung Timur.", "Tiket_Masu": "Gratis", "Foto": "gambar\/garongan.jpg", "Longitude": 105.4086803, "Latitude": -5.068131741 }, "geometry": { "type": "MultiPolygon", "coordinates": [ [ [ [ 105.417701848566836, -5.068125977732917 ], [ 105.417262096846557, -5.070921742590709 ], [ 105.41598228977918, -5.073444407466874 ], [ 105.413987696568128, -5.07544703249932 ], [ 105.411473560974031, -5.076733581371919 ], [ 105.408685989854348, -5.077178112793009 ], [ 105.405897860312052, -5.076737110395345 ], [ 105.403382104670044, -5.075453743393184 ], [ 105.401384989827534, -5.073453640559223 ], [ 105.400102008184717, -5.070932591319292 ], [ 105.399658741154553, -5.068137378441132 ], [ 105.400098568593549, -5.065341619346296 ], [ 105.401378426383772, -5.06281898157914 ], [ 105.40337302594736, -5.060816394647037 ], [ 105.405887121097251, -5.05952988031308 ], [ 105.40867462042425, -5.05908536667634 ], [ 105.411462674247829, -5.059526363311047 ], [ 105.413978379167006, -5.060809703204197 ], [ 105.415975487656993, -5.062809767937814 ], [ 105.417258509744016, -5.065330782639105 ], [ 105.417701848566836, -5.068125977732917 ] ] ] ] } },
{ "type": "Feature", "properties": { "ID": 11, "Nama": "Wisata wanaba", "Deskripsi": "Nikmati ketenangan alam di Wisata Wanaba, surga tersembunyi di Sukadana Timur, Lampung Timur. Hamparan air danau yang luas berpadu dengan panorama hijau pedesaan menciptakan suasana damai nan sejuk. Cocok untuk bersantai di gazebo pinggir waduk, bermain", "Fasilitas": "Area parkir, gazebo, toilet, mushola, dan sewa perahu bebek.", "Jam_Buka": "Setiap hari, pukul 08.00 - 17.00 WIB", "Alamat": "Desa Sukadana Tim., Kec. Sukadana, Kabupaten Lampung Timur.", "Tiket_Masu": "Rp 10.000 per orang", "Foto": "gambar\/wanaba.jpg", "Longitude": 105.6258742, "Latitude": -5.068775574 }, "geometry": { "type": "MultiPolygon", "coordinates": [ [ [ [ 105.634895443964922, -5.068766780261423 ], [ 105.634456641441304, -5.071562595480713 ], [ 105.633177721100935, -5.07408560288521 ], [ 105.631183864960363, -5.076088829364521 ], [ 105.628670244151138, -5.07737617972915 ], [ 105.625882914751983, -5.077821633951778 ], [ 105.62309473005628, -5.077381584881359 ], [ 105.620578627933867, -5.076099107960012 ], [ 105.618580909587735, -5.074099744552378 ], [ 105.617297126972744, -5.071579211703676 ], [ 105.616852940294535, -5.068784241913729 ], [ 105.617291819579393, -5.065988429262474 ], [ 105.618570793373195, -5.063465446990548 ], [ 105.620564659241964, -5.061462258608556 ], [ 105.623078242338323, -5.060174944754108 ], [ 105.625865500988553, -5.059729511508878 ], [ 105.628653608922988, -5.060169558011258 ], [ 105.631169657591983, -5.061452009800037 ], [ 105.633167366209932, -5.063451335110352 ], [ 105.634451186537802, -5.065971831448874 ], [ 105.634895443964922, -5.068766780261423 ] ] ] ] } },
{ "type": "Feature", "properties": { "ID": 12, "Nama": "Pantai Kerang Mas", "Deskripsi": "Pantai Kerang Mas merupakan destinasi wisata andalan di Lampung Timur yang menawarkan pesona pasir putih, deretan kerang alami, dan pemandangan laut lepas yang memukau. Berhadapan langsung dengan Samudra Hindia, pantai ini menjadi tempat favorit untuk me", "Fasilitas": "Area parkir, gazebo, toilet, mushola, aula, sewa ban, sewa perahu, sewa ATV, sewa banana boot dan penginapan.", "Jam_Buka": "Setiap hari, pukul 08.00 - 17.00 WIB", "Alamat": "Desa Muara Gading Mas, Kec. Labuhan Maringgai, Lampung Timur", "Tiket_Masu": "Rp 10.000 per orang", "Foto": "gambar\/pantaikerangmas.jpg", "Longitude": 105.8191483, "Latitude": -5.37141852 }, "geometry": { "type": "MultiPolygon", "coordinates": [ [ [ [ 105.828173480644608, -5.371406346313606 ], [ 105.8277355302817, -5.374202179137171 ], [ 105.82645699326747, -5.376725533915178 ], [ 105.824463013357018, -5.378729403522128 ], [ 105.821948773367239, -5.380017629491221 ], [ 105.819160390029552, -5.380464105573194 ], [ 105.816370820303803, -5.3800251240859 ], [ 105.813853138401626, -5.378743655664534 ], [ 105.8118538009047, -5.376745142966548 ], [ 105.810568518691696, -5.374225220087292 ], [ 105.810123098716261, -5.371430560330212 ], [ 105.810561131228795, -5.368634727931433 ], [ 105.81183972689773, -5.366111398369018 ], [ 105.813833719563874, -5.364107569136968 ], [ 105.816347921538039, -5.362819383280242 ], [ 105.819136230609544, -5.362372931726544 ], [ 105.821925718185668, -5.362811912789052 ], [ 105.824443341433152, -5.364093355994822 ], [ 105.826442666174387, -5.36609182831791 ], [ 105.827727986402991, -5.3686117110848 ], [ 105.828173480644608, -5.371406346313606 ] ] ] ] } },
{ "type": "Feature", "properties": { "ID": 13, "Nama": "Pantai Cemara Indah", "Deskripsi": "Pantai Cemara Indah adalah surga tersembunyi di pesisir Lampung Timur yang memikat hati dengan hamparan pohon cemara yang rindang, berpadu harmonis dengan debur ombak dan pasir pantai yang lembut. Suasananya yang tenang dan alami menjadikannya tempat ide", "Fasilitas": "Area parkir, gazebo, toilet, mushola, dan sewa ban.", "Jam_Buka": "Setiap hari, pukul 08.00 - 17.00 WIB", "Alamat": "Desa Bandar Negeri, Kec. Labuhan Maringgai, Kabupaten Lampung Timur.", "Tiket_Masu": "Rp 10.000 per orang", "Foto": "gambar\/pantaicemaraindah.jpg", "Longitude": 105.821268, "Latitude": -5.418764034 }, "geometry": { "type": "MultiPolygon", "coordinates": [ [ [ [ 105.830293875486092, -5.418751721740994 ], [ 105.829855934310245, -5.421547555524969 ], [ 105.828577337475394, -5.424070924775428 ], [ 105.826583234526638, -5.426074820911891 ], [ 105.824068820319496, -5.42736308281982 ], [ 105.821280228696125, -5.427809600688071 ], [ 105.818490437102554, -5.4273706627239 ], [ 105.815972541569366, -5.426089235313317 ], [ 105.813973019655563, -5.42409075713767 ], [ 105.812687600297053, -5.421570858963864 ], [ 105.812242103815095, -5.418776211720946 ], [ 105.812680127851351, -5.415980378440326 ], [ 105.813958783802988, -5.41345703467522 ], [ 105.815952899544328, -5.411453179271573 ], [ 105.818467275333504, -5.41016495778537 ], [ 105.821255792002717, -5.409718464588031 ], [ 105.824045500735892, -5.410157402048847 ], [ 105.82656333715228, -5.411438803974071 ], [ 105.828562846273513, -5.413437241416907 ], [ 105.829848304049989, -5.415957099168986 ], [ 105.830293875486092, -5.418751721740994 ] ] ] ] } },
{ "type": "Feature", "properties": { "ID": 14, "Nama": "Pantai Mutiara Baru", "Deskripsi": "Pantai Mutiara Baru menyuguhkan pesona eksotis dengan hamparan pasir putih yang bersih dan air laut yang jernih kebiruan, menjadikannya destinasi ideal untuk bersantai atau berfoto ria. Dikelilingi pepohonan rindang dan suasana yang masih alami, pantai i", "Fasilitas": "Area parkir, gazebo, toilet, mushola, dan sewa ban.", "Jam_Buka": "Setiap hari, pukul 08.00 - 17.00 WIB", "Alamat": "Desa Karya Makmur, Kec. Labuhan Maringgai, Kabupaten Lampung Timur.", "Tiket_Masu": "Rp 10.000 per orang", "Foto": "gambar\/pantaimutiarabaru.jpg", "Longitude": 105.822298, "Latitude": -5.429701166 }, "geometry": { "type": "MultiPolygon", "coordinates": [ [ [ [ 105.831324035647171, -5.429688813580803 ], [ 105.830886099125877, -5.432484647594872 ], [ 105.829607490792469, -5.435008020994793 ], [ 105.827613361301502, -5.43701192478576 ], [ 105.825098908104195, -5.438300197092218 ], [ 105.82231026887159, -5.438746727074295 ], [ 105.819520425732222, -5.438307801747652 ], [ 105.817002479786055, -5.4370263862627 ], [ 105.815002913542983, -5.435027918141569 ], [ 105.813717460280571, -5.432508027178707 ], [ 105.813271943626603, -5.429713383608144 ], [ 105.813709963175086, -5.426917550107621 ], [ 105.814988630738853, -5.424394202250437 ], [ 105.816982773039342, -5.422390339274941 ], [ 105.819497187732537, -5.421102107466567 ], [ 105.822285751854679, -5.420655602196292 ], [ 105.825075511966844, -5.421094527009387 ], [ 105.82759339868268, -5.422375916951601 ], [ 105.829592952116215, -5.424374344257259 ], [ 105.830878443882739, -5.426894194722041 ], [ 105.831324035647171, -5.429688813580803 ] ] ] ] } },
{ "type": "Feature", "properties": { "ID": 15, "Nama": "Way Guruh Sriwangi", "Deskripsi": "Way Guruh Sriwangi adalah destinasi pemandian alami yang menawarkan pengalaman menyegarkan di tengah suasana pedesaan yang tenang. Airnya yang jernih berasal langsung dari sumber mata air, menjadikannya tempat favorit untuk bersantai bersama keluarga. Ke", "Fasilitas": "Area parkir, gazebo, toilet, mushola, terapi ikan, dan flying fox.", "Jam_Buka": "Setiap hari, pukul 08.00 - 17.00 WIB", "Alamat": "Desa Sri Wangi, Kec. Way Jepara, Kabupaten Lampung Timur.", "Tiket_Masu": "Rp 20.000 per orang", "Foto": "gambar\/wayguruh.jpg", "Longitude": 105.7272282, "Latitude": -5.230500699 }, "geometry": { "type": "MultiPolygon", "coordinates": [ [ [ [ 105.736251532809177, -5.230490166711878 ], [ 105.735813165401311, -5.233285993420797 ], [ 105.734534433070962, -5.235809181709376 ], [ 105.732540499039857, -5.23781274075219 ], [ 105.73002654183864, -5.239100542633203 ], [ 105.727238650500937, -5.239546522856576 ], [ 105.724449733594867, -5.239107022517164 ], [ 105.721932801071716, -5.23782506318486 ], [ 105.719934235810996, -5.235826135567948 ], [ 105.718649672894827, -5.233305914226337 ], [ 105.718204848883559, -5.230511101438315 ], [ 105.718643295921808, -5.227715276180851 ], [ 105.719922084459171, -5.225192113087144 ], [ 105.721916029804788, -5.223188593359035 ], [ 105.72442994910628, -5.221900829895681 ], [ 105.727217767806366, -5.221454872518681 ], [ 105.730006605082039, -5.221894371406639 ], [ 105.732523481398161, -5.223176305544067 ], [ 105.734522035344355, -5.225175193846274 ], [ 105.735806636160277, -5.22769537677023 ], [ 105.736251532809177, -5.230490166711878 ] ] ] ] } },
{ "type": "Feature", "properties": { "ID": 16, "Nama": "Rest Area Labuhan Ratu 6", "Deskripsi": "Rest Area Labuhan Ratu 6 merupakan tempat istirahat yang nyaman dan strategis di jalur menuju Taman Nasional Way Kambas. Dikelilingi oleh suasana asri pedesaan dan pepohonan rindang, rest area ini menjadi titik singgah ideal bagi wisatawan yang ingin mel", "Fasilitas": "Area parkir, gazebo, toilet, dan spot foto.", "Jam_Buka": "Setiap hari", "Alamat": "DesaLabuhan Ratu Enam, Kec. Labuhan Ratu, Kabupaten Lampung Timur.", "Tiket_Masu": "Gratis", "Foto": "gambar\/resarea.jpg", "Longitude": 105.7102187, "Latitude": -5.104981338 }, "geometry": { "type": "MultiPolygon", "coordinates": [ [ [ [ 105.719240291115227, -5.104971296710478 ], [ 105.718801856510638, -5.107767120955634 ], [ 105.717523234262416, -5.11029025882538 ], [ 105.715529577010471, -5.112293724516425 ], [ 105.71301603623121, -5.113581399385274 ], [ 105.710228660064956, -5.11402723149997 ], [ 105.707440306400414, -5.113587576530681 ], [ 105.704923929780037, -5.112305471177752 ], [ 105.70292585847389, -5.110306420356185 ], [ 105.701641679173548, -5.107786110551392 ], [ 105.701197091019466, -5.104991252570019 ], [ 105.701635603319744, -5.102195429735474 ], [ 105.702914280410482, -5.099672316449596 ], [ 105.704907948703791, -5.097668889125479 ], [ 105.707421452505855, -5.096381251751754 ], [ 105.710208757800345, -5.095935441938514 ], [ 105.712997033769184, -5.096375095497193 ], [ 105.715513355547046, -5.097657176266249 ], [ 105.717511415811828, -5.099656188720892 ], [ 105.718795632089382, -5.102176461030561 ], [ 105.719240291115227, -5.104971296710478 ] ] ] ] } },
{ "type": "Feature", "properties": { "ID": 17, "Nama": "Taman Purbakala Pugung Raharjo", "Deskripsi": "Taman Purbakala Pugung Raharjo menyimpan jejak sejarah masa lampau dengan koleksi menhir, arca, dan peninggalan zaman megalitikum. Terletak di tengah hamparan alam hijau, situs ini menghadirkan pengalaman wisata edukatif yang membawa pengunjung menelusur", "Fasilitas": "Area parkir, gazebo, toilet, mushola, terapi ikan, dan kolam pemandian.", "Jam_Buka": "Setiap hari", "Alamat": "Desa Pugung Raharjo, Kec. Sekampung Udik, Lampung Timur.", "Tiket_Masu": "Gratis", "Foto": "gambar\/tamanpurbakala1.jpg", "Longitude": 105.5712527, "Latitude": -5.300798527 }, "geometry": { "type": "MultiPolygon", "coordinates": [ [ [ [ 105.580277328623666, -5.300790128600905 ], [ 105.579838240291721, -5.30358593256622 ], [ 105.578558730163877, -5.306108891188067 ], [ 105.576564037784465, -5.308112035859159 ], [ 105.57404941626065, -5.309399279148481 ], [ 105.57126102002492, -5.309844611378423 ], [ 105.568471807323448, -5.30940443737603 ], [ 105.565954817104412, -5.30812184500341 ], [ 105.563956437708583, -5.30612238719849 ], [ 105.562672285680151, -5.303601790496211 ], [ 105.562228056988644, -5.300806793778389 ], [ 105.562667225249584, -5.298010993724232 ], [ 105.563946790271885, -5.295488062150497 ], [ 105.565941491543398, -5.293484957333014 ], [ 105.568456072560465, -5.292197751480068 ], [ 105.571244394362793, -5.29175243996985 ], [ 105.574033527135271, -5.292192610061085 ], [ 105.576550462459863, -5.29347517538559 ], [ 105.578548832963619, -5.295474593336903 ], [ 105.579833025498786, -5.297995152602804 ], [ 105.580277328623666, -5.300790128600905 ] ] ] ] } },
{ "type": "Feature", "properties": { "ID": 18, "Nama": "Sumber Mata Air Awet Muda", "Deskripsi": "Sumber Mata Air Awet Muda adalah destinasi wisata alam yang terkenal dengan kejernihan airnya dan mitos yang menyertainya. Terletak di tengah alam yang masih asri, mata air ini dipercaya memiliki khasiat untuk menjaga kesehatan dan kecantikan, sehingga d", "Fasilitas": "Kolam pemandian, gazebo dan toilet.", "Jam_Buka": "Setiap hari", "Alamat": "Desa Maringgai, Kec. Labuhan Maringgai, Kabupaten Lampung Timur.", "Tiket_Masu": "Gratis", "Foto": "gambar\/air.jpg", "Longitude": 105.7968568, "Latitude": -5.351700079 }, "geometry": { "type": "MultiPolygon", "coordinates": [ [ [ [ 105.805881741208509, -5.351688278107228 ], [ 105.805443687396831, -5.354484110074591 ], [ 105.804165080474093, -5.357007427526723 ], [ 105.802171071104013, -5.359011226980015 ], [ 105.799656845036736, -5.360299356855774 ], [ 105.796868517655454, -5.360745720356822 ], [ 105.794079040416804, -5.360306620874321 ], [ 105.791561478422707, -5.359025040633806 ], [ 105.789562276451932, -5.357026433250187 ], [ 105.788277132067378, -5.354506442066321 ], [ 105.787831838716443, -5.351711747025986 ], [ 105.788269974280468, -5.34891591576597 ], [ 105.789548639396926, -5.346392623612735 ], [ 105.791542661174077, -5.344388864386576 ], [ 105.794056849122697, -5.343100774300789 ], [ 105.79684510241961, -5.342654434954131 ], [ 105.799634497905927, -5.343093533729283 ], [ 105.80215200170629, -5.344375088670898 ], [ 105.80415119126998, -5.346373655827383 ], [ 105.805436373773205, -5.348893607221282 ], [ 105.805881741208509, -5.351688278107228 ] ] ] ] } }
]
}
